{
  "links" : {
    "next" : "https://api.nasa.gov/neo/rest/v1/feed?start_date=2007-04-16&end_date=2007-04-16&detailed=true&api_key=t0TVs3DtDT2H8Oy2Zy8m2eVrNsAVKAexjcZXUckd",
    "prev" : "https://api.nasa.gov/neo/rest/v1/feed?start_date=2007-04-14&end_date=2007-04-14&detailed=true&api_key=t0TVs3DtDT2H8Oy2Zy8m2eVrNsAVKAexjcZXUckd",
    "self" : "https://api.nasa.gov/neo/rest/v1/feed?start_date=2007-04-15&end_date=2007-04-15&detailed=true&api_key=t0TVs3DtDT2H8Oy2Zy8m2eVrNsAVKAexjcZXUckd"
  },
  "element_count" : 5,
  "near_earth_objects" : {
    "2007-04-15" : [ {
      "links" : {
        "self" : "https://api.nasa.gov/neo/rest/v1/neo/3002856?api_key=t0TVs3DtDT2H8Oy2Zy8m2eVrNsAVKAexjcZXUckd"
      },
      "neo_reference_id" : "3002856",
      "name" : "(1991 GO)",
      "nasa_jpl_url" : "http://ssd.jpl.nasa.gov/sbdb.cgi?sstr=3002856",
      "absolute_magnitude_h" : 20.0,
      "estimated_diameter" : {
        "kilometers" : {
          "estimated_diameter_min" : 0.2658,
          "estimated_diameter_max" : 0.5943468684
        },
        "meters" : {
          "estimated_diameter_min" : 265.8,
          "estimated_diameter_max" : 594.3468684194
        },
        "miles" : {
          "estimated_diameter_min" : 0.1651604118,
          "estimated_diameter_max" : 0.369309908
        },
        "feet" : {
          "estimated_diameter_min" : 872.047272,
          "estimated_diameter_max" : 1949.9569797852
        }
      },
      "is_potentially_hazardous_asteroid" : true,
      "close_approach_data" : [ {
        "close_approach_date" : "2007-04-15",
        "epoch_date_close_approach" : 1176620400000,
        "relative_velocity" : {
          "kilometers_per_second" : "23.7053659028",
          "kilometers_per_hour" : "85339.3172500523",
          "miles_per_hour" : "53026.5329879561"
        },
        "miss_distance" : {
          "astronomical" : "0.1806552669",
          "lunar" : "70.2749023438",
          "kilometers" : "27025644",
          "miles" : "16792956"
        },
        "orbiting_body" : "Earth"
      } ],
      "orbital_data" : {
        "orbit_id" : "25",
        "orbit_determination_date" : "2017-04-06 09:18:25",
        "orbit_uncertainty" : "0",
        "minimum_orbit_intersection" : ".0254032",
        "jupiter_tisserand_invariant" : "3.609",
        "epoch_osculation" : "2458000.5",
        "eccentricity" : ".6541250187167202",
        "semi_major_axis" : "1.92611661680593",
        "inclination" : "9.555632639332142",
        "ascending_node_longitude" : "24.14926091422981",
        "orbital_period" : "976.3876865935516",
        "perihelion_distance" : ".6661955487871652",
        "perihelion_argument" : "89.58499675734092",
        "aphelion_distance" : "3.186037684824695",
        "perihelion_time" : "2458065.428369248125",
        "mean_anomaly" : "336.0605205798184",
        "mean_motion" : ".3687060016661803",
        "equinox" : "J2000"
      }
    }, {
      "links" : {
        "self" : "https://api.nasa.gov/neo/rest/v1/neo/3368862?api_key=t0TVs3DtDT2H8Oy2Zy8m2eVrNsAVKAexjcZXUckd"
      },
      "neo_reference_id" : "3368862",
      "name" : "(2007 DZ40)",
      "nasa_jpl_url" : "http://ssd.jpl.nasa.gov/sbdb.cgi?sstr=3368862",
      "absolute_magnitude_h" : 18.4,
      "estimated_diameter" : {
        "kilometers" : {
          "estimated_diameter_min" : 0.5553349116,
          "estimated_diameter_max" : 1.2417666126
        },
        "meters" : {
          "estimated_diameter_min" : 555.334911581,
          "estimated_diameter_max" : 1241.766612574
        },
        "miles" : {
          "estimated_diameter_min" : 0.3450690093,
          "estimated_diameter_max" : 0.7715977618
        },
        "feet" : {
          "estimated_diameter_min" : 1821.9649913114,
          "estimated_diameter_max" : 4074.0375731972
        }
      },
      "is_potentially_hazardous_asteroid" : false,
      "close_approach_data" : [ {
        "close_approach_date" : "2007-04-15",
        "epoch_date_close_approach" : 1176620400000,
        "relative_velocity" : {
          "kilometers_per_second" : "13.7362162877",
          "kilometers_per_hour" : "49450.3786358294",
          "miles_per_hour" : "30726.5422140241"
        },
        "miss_distance" : {
          "astronomical" : "0.1476020565",
          "lunar" : "57.4171981812",
          "kilometers" : "22080952",
          "miles" : "13720468"
        },
        "orbiting_body" : "Earth"
      } ],
      "orbital_data" : {
        "orbit_id" : "38",
        "orbit_determination_date" : "2017-04-06 09:06:56",
        "orbit_uncertainty" : "0",
        "minimum_orbit_intersection" : ".107816",
        "jupiter_tisserand_invariant" : "2.866",
        "epoch_osculation" : "2458000.5",
        "eccentricity" : ".7014933793811512",
        "semi_major_axis" : "2.83732277847082",
        "inclination" : "11.3017670896608",
        "ascending_node_longitude" : "172.9180836572769",
        "orbital_period" : "1745.667569743704",
        "perihelion_distance" : ".8469596342062071",
        "perihelion_argument" : "8.965575731575996",
        "aphelion_distance" : "4.827685922735433",
        "perihelion_time" : "2457692.436883805300",
        "mean_anomaly" : "63.53026415354365",
        "mean_motion" : ".2062248312563053",
        "equinox" : "J2000"
      }
    } ]
  }
}